
STARLINK-11259 [DTC]    
1 60721U 24152B   24329.82345666  .00000605  00000+0  98417-5 0  9994
2 60721  53.1597 272.7892 0000654 321.4942  38.6029 15.69712914 15037
STARLINK-11188 [DTC]    
1 60722U 24152C   24329.81855210  .00003036  00000+0  29903-4 0  9999
2 60722  53.1588 272.7614 0001244  81.7199 278.3960 15.69713487 15152
STARLINK-11272 [DTC]    
1 60723U 24152D   24329.23571501 -.00010582  00000+0 -82676-4 0  9996
2 60723  53.1577 275.5173 0001390  58.1763 301.9390 15.69685248 14948
STARLINK-11261 [DTC]    
1 60724U 24152E   24329.87731552 -.00002282  00000+0 -13972-4 0  9992
2 60724  53.1598 272.4112 0001474  97.1844 262.9342 15.69719013 15040
STARLINK-11263 [DTC]    
1 60725U 24152F   24329.67644846  .00003579  00000+0  34344-4 0  9994
2 60725  53.1595 273.2924 0001879  64.4828 295.6384 15.69745571 15010
STARLINK-11235 [DTC]    
1 60726U 24152G   24328.07985532 -.00004652  00000+0 -33525-4 0  9993
2 60726  53.1570 281.0994 0001843 105.7071 254.4150 15.69726156 14895
STARLINK-11080 [DTC]    
1 60727U 24152H   24329.28466841 -.00001289  00000+0 -57707-5 0  9997
2 60727  53.1591 275.1091 0001677  89.4093 270.7117 15.69713930 15080
STARLINK-11249 [DTC]    
1 60728U 24152J   24329.27974826  .00001906  00000+0  20573-4 0  9998
2 60728  53.1596 275.0722 0000991  92.9137 267.1994 15.69723216 14958
STARLINK-11146 [DTC]    
1 60729U 24152K   24328.89285268 -.00001142  00000+0 -45598-5 0  9990
2 60729  53.1595 276.9182 0001714  42.4849 317.6301 15.69698960 15021
STARLINK-11255 [DTC]    
1 60730U 24152L   24329.26995594 -.00004036  00000+0 -28467-4 0  9994
2 60730  53.1564 275.0065 0001609  92.5885 267.5317 15.69708977 14960
STARLINK-11254 [DTC]    
1 60731U 24152M   24329.83806861  .00006051  00000+0  54805-4 0  9998
2 60731  53.1588 272.1484 0002069  88.3177 271.8078 15.69696690 15059
STARLINK-11266 [DTC]    
1 60732U 24152N   24329.26012887  .00003226  00000+0  31472-4 0  9999
2 60732  53.1592 274.9324 0001450  66.8060 293.3111 15.69713383 14957
STARLINK-32253          
1 60733U 24152P   24329.89208415  .00000057  00000+0  14048-4 0  9992
2 60733  53.1609 290.5181 0001330  90.9209 269.1944 15.30193877 14876
STARLINK-32179          
1 60734U 24152Q   24329.28115291 -.00000492  00000+0 -44799-5 0  9997
2 60734  53.1635 293.8202 0001220 118.3107 241.8017 15.30189257 14691
STARLINK-32272          
1 60735U 24152R   24329.92796193  .00000761  00000+0  37846-4 0  9996
2 60735  53.1622 290.7492 0001855  62.5816 297.5373 15.30198450 14885
STARLINK-32280          
1 60736U 24152S   24329.31691440 -.00000728  00000+0 -12467-4 0  9996
2 60736  53.1609 293.3289 0001050  98.4457 261.6663 15.30192997 14794
STARLINK-32289          
1 60737U 24152T   24328.94191502 -.00000912  00000+0 -18676-4 0  9992
2 60737  53.1619 295.2580 0001440  79.4460 280.6703 15.30198889 14766
STARLINK-32304          
1 60738U 24152U   24329.91846534  .00006432  00000+0  22920-3 0  9990
2 60738  53.1631 290.6914 0001376 105.3838 254.7315 15.30187040 14923
STARLINK-32235          
1 60739U 24152V   24329.91530871  .00005901  00000+0  21129-3 0  9995
2 60739  53.1620 290.6781 0004205  90.9560 269.1923 15.30189573 14871
STARLINK-32315          
1 60740U 24152W   24329.32429950  .00001293  00000+0  55760-4 0  9996
2 60740  53.1626 293.3804 0001218  94.6516 265.4624 15.30198547 14708
2024-153A               
1 60745U 24153A   24329.86667010  .00016681  00000+0  93999-3 0  9994
2 60745  97.6226  87.0824 0014369 348.6155  11.4748 15.13189438 13248
2024-153B               
1 60746U 24153B   24329.90969682  .00020815  00000+0  11482-2 0  9990
2 60746  97.6222  87.1827 0014631 350.9105   9.1859 15.13899602 13251
2024-153C               
1 60747U 24153C   24329.90015084  .00023553  00000+0  12851-2 0  9992
2 60747  97.6214  87.1913 0015005 349.6011  10.4908 15.14258490 13251
2024-153D               
1 60748U 24153D   24329.88857560  .00026735  00000+0  14427-2 0  9999
2 60748  97.6251  87.2456 0015045 351.1530   8.9434 15.14623665 13250
2024-153E               
1 60749U 24153E   24329.88177964  .00027289  00000+0  14645-2 0  9990
2 60749  97.6218  87.2155 0014230 352.6224   7.4796 15.14825406 13253
2024-153F               
1 60750U 24153F   24329.87927958  .00027114  00000+0  14550-2 0  9999
2 60750  97.6183  87.1794 0015169 352.9797   7.1220 15.14816517 13256
STARLINK-11242 [DTC]    
1 60903U 24154A   24329.27363157 -.00000983  00000+0 -32535-5 0  9992
2 60903  53.1584 289.9992 0001293 104.1451 255.9710 15.69707554 14637
STARLINK-11256 [DTC]    
1 60904U 24154B   24328.37734528  .00000984  00000+0  12986-4 0  9993
2 60904  53.1590 294.3533 0001511  73.4005 286.7178 15.69712247 14491
STARLINK-11159 [DTC]    
1 60905U 24154C   24329.32267978  .00002702  00000+0  27156-4 0  9995
2 60905  53.1584 290.3140 0002321 112.5387 247.5877 15.69716566 14638
STARLINK-11264 [DTC]    
1 60906U 24154D   24329.89080127  .00001236  00000+0  15064-4 0  9993
2 60906  53.1581 287.4546 0001056  98.6297 261.4841 15.69706431 14727
STARLINK-11226 [DTC]    
1 60907U 24154E   24329.31286823 -.00004411  00000+0 -31525-4 0  9992
2 60907  53.1587 290.2498 0001995  98.3993 261.7251 15.69729638 14636
STARLINK-11229 [DTC]    
1 60908U 24154F   24329.88099119 -.00000241  00000+0  28738-5 0  9994
2 60908  53.1571 287.3965 0001442  81.7065 278.4117 15.69707070 14721
STARLINK-11265 [DTC]    
1 60909U 24154G   24329.83694201  .00000153  00000+0  61240-5 0  9999
2 60909  53.1574 287.8363 0001304 112.6577 247.4579 15.69710693 14713
STARLINK-11250 [DTC]    
1 60910U 24154H   24329.30305964 -.00001717  00000+0 -92999-5 0  9992
2 60910  53.1574 290.1898 0001966  61.4192 298.7024 15.69718077 14632
STARLINK-11190 [DTC]    
1 60911U 24154J   24328.91611554  .00007715  00000+0  68408-4 0  9993
2 60911  53.1571 292.0345 0001227  66.2545 293.8602 15.69734646 14563
STARLINK-11225 [DTC]    
1 60912U 24154K   24329.29324527 -.00002799  00000+0 -18232-4 0  9996
2 60912  53.1579 290.1149 0002141 134.8764 225.2428 15.69712500 14621
STARLINK-11273 [DTC]    
1 60913U 24154L   24328.33329500  .00000788  00000+0  11356-4 0  9991
2 60913  53.1587 294.7959 0001097  67.4157 292.6977 15.69718062 14475
STARLINK-11248 [DTC]    
1 60914U 24154M   24329.28343679 -.00002756  00000+0 -17907-4 0  9997
2 60914  53.1572 290.0538 0000976 124.1619 235.9491 15.69698075 14620
STARLINK-11271 [DTC]    
1 60915U 24154N   24329.27853795 -.00000411  00000+0  14745-5 0  9995
2 60915  53.1591 290.0196 0001472  94.0583 266.0603 15.69704720 14624
STARLINK-32371          
1 60916U 24154P   24329.93750277 -.00000167  00000+0  64939-5 0  9998
2 60916  53.1613 305.8008 0001449  98.0690 262.0475 15.30193095 14419
STARLINK-32369          
1 60917U 24154Q   24328.35095732 -.00000697  00000+0 -11413-4 0  9999
2 60917  53.1626 312.9651 0001579  78.8701 281.2477 15.30191634 14175
STARLINK-32317          
1 60918U 24154R   24328.26464501  .00000710  00000+0  36100-4 0  9998
2 60918  53.1625 313.8546 0001467  96.7825 263.3343 15.30195913 14155
STARLINK-32367          
1 60919U 24154S   24328.33934678 -.00000276  00000+0  28229-5 0  9996
2 60919  53.1620 312.9019 0001227 118.5253 241.5871 15.30191227 14178
STARLINK-32345          
1 60920U 24154T   24328.20039177 -.00000243  00000+0  39204-5 0  9993
2 60920  53.1627 314.1607 0001313  79.1201 280.9948 15.30193492 14151
STARLINK-32356          
1 60921U 24154U   24328.36044890  .00001843  00000+0  74335-4 0  9998
2 60921  53.1598 313.0263 0001490  91.2944 268.8228 15.30198575 14186
STARLINK-32274          
1 60922U 24154V   24328.96516665  .00000399  00000+0  25611-4 0  9997
2 60922  53.1619 310.3965 0001424  94.7234 265.3929 15.30195182 14278
STARLINK-32373          
1 60923U 24154W   24328.19089375 -.00001211  00000+0 -28758-4 0  9997
2 60923  53.1624 314.1009 0001335  84.0722 276.0431 15.30196349 14151
STARLINK-11239 [DTC]    
1 60924U 24155A   24329.84917982 -.00004632  00000+0 -33371-4 0  9993
2 60924  53.1570 137.7723 0000829  10.1573 349.9462 15.69730390 14601
STARLINK-11245 [DTC]    
1 60925U 24155B   24328.87942790 -.00000298  00000+0  23904-5 0  9996
2 60925  53.1561 142.3766 0000725 111.5926 248.5169 15.69706582 14338
STARLINK-11244 [DTC]    
1 60926U 24155C   24329.88832736  .00000304  00000+0  73701-5 0  9994
2 60926  53.1559 137.2936 0000971  53.6936 306.4172 15.69706927 14665
STARLINK-11243 [DTC]    
1 60927U 24155D   24328.68351521 -.00000641  00000+0 -43392-6 0  9990
2 60927  53.1579 143.2868 0000786  79.5134 280.5972 15.69704508 14315
STARLINK-11238 [DTC]    
1 60928U 24155E   24329.81974600  .00002004  00000+0  21387-4 0  9997
2 60928  53.1569 137.5690 0000550 354.6476   5.4536 15.69710105 14656
STARLINK-11240 [DTC]    
1 60929U 24155F   24329.68750363  .00001237  00000+0  15062-4 0  9991
2 60929  53.1572 138.1637 0000452 113.2127 246.8939 15.69704480 14581
STARLINK-11251 [DTC]    
1 60930U 24155G   24328.66388439 -.00003122  00000+0 -20906-4 0  9991
2 60930  53.1570 143.1561 0001918  70.9249 289.1976 15.69707459 14259
STARLINK-11204 [DTC]    
1 60931U 24155H   24327.70394096 -.00000037  00000+0  45469-5 0  9995
2 60931  53.1579 147.8287 0000942  87.9593 272.1533 15.69710255 14272
STARLINK-11246 [DTC]    
1 60932U 24155J   24328.65409603 -.00002974  00000+0 -19723-4 0  9998
2 60932  53.1575 143.0892 0000765  84.2537 275.8568 15.69686332 14254
STARLINK-11207 [DTC]    
1 60933U 24155K   24329.47687288 -.00002279  00000+0 -13965-4 0  9997
2 60933  53.1574 138.9756 0000674 347.7959  12.3043 15.69714211 14553
STARLINK-11237 [DTC]    
1 60934U 24155L   24329.85398119 -.00001021  00000+0 -35698-5 0  9994
2 60934  53.1571 137.0626 0001133 191.4375 168.6618 15.69713909 14628
